NORAD_CAT_ID,OBJECT_NAME,OBJECT_TYPE,EPOCH,MEAN_MOTION,ECCENTRICITY,INCLINATION,RA_OF_ASC_NODE,ARG_OF_PERICENTER,MEAN_ANOMALY,BSTAR,MEAN_MOTION_DOT,MEAN_MOTION_DDOT,TLE_LINE0,TLE_LINE1,TLE_LINE2,SEMIMAJOR_AXIS,PERIOD,APOGEE,PERIGEE,DECAYED
53157.0,STARLINK-4093,PAYLOAD,2024-07-14 14:24:19,15.08831322,0.0001055,53.2183,351.4929,76.0759,284.035,4.0765e-05,3.61e-06,0.0,0 STARLINK-4093,1 53157U 22083AB  24196.60022486  .00000361  00000-0  40765-4 0  9992,2 53157  53.2183 351.4929 0001055  76.0759 284.0350 15.08831322110314,6917.907,95.438,540.502,539.042,0.0
53157.0,STARLINK-4093,PAYLOAD,2024-07-14 17:35:05,15.08837075,0.0001118,53.2189,350.9007,92.9162,267.1958,0.00010644,1.406e-05,0.0,0 STARLINK-4093,1 53157U 22083AB  24196.73270156  .00001406  00000-0  10644-3 0  9998,2 53157  53.2189 350.9007 0001118  92.9162 267.1958 15.08837075110964,6917.889,95.438,540.528,538.981,0.0
53157.0,STARLINK-4093,PAYLOAD,2024-07-15 03:07:22,15.08856009,0.0001075,53.2181,349.1122,67.4585,292.6521,0.00028507,4.254e-05,0.0,0 STARLINK-4093,1 53157U 22083AB  24197.13012640  .00004254  00000-0  28507-3 0  9996,2 53157  53.2181 349.1122 0001075  67.4585 292.6521 15.08856009111027,6917.831,95.437,540.44,538.953,0.0
53157.0,STARLINK-4093,PAYLOAD,2024-07-15 14:15:06,15.08827193,0.0001273,53.219,347.0347,89.6285,270.4853,-0.00010932,-2.027e-05,0.0,0 STARLINK-4093,1 53157U 22083AB  24197.59382305 -.00002027  00000-0 -10932-3 0  9995,2 53157  53.2190 347.0347 0001273  89.6285 270.4853 15.08827193110467,6917.92,95.438,540.665,538.904,0.0
53157.0,STARLINK-4093,PAYLOAD,2024-07-15 17:25:52,15.08830513,0.0001365,53.2186,346.4385,84.7762,275.3386,-2.9227e-05,-7.53e-06,0.0,0 STARLINK-4093,1 53157U 22083AB  24197.72630304 -.00000753  00000-0 -29227-4 0  9997,2 53157  53.2186 346.4385 0001365  84.7762 275.3386 15.08830513111113,6917.909,95.438,540.719,538.83,0.0
53157.0,STARLINK-4093,PAYLOAD,2024-07-16 09:19:43,15.08838692,0.0001143,53.2176,343.4685,90.0014,270.111,0.00016797,2.386e-05,0.0,0 STARLINK-4093,1 53157U 22083AB  24198.38870123  .00002386  00000-0  16797-3 0  9994,2 53157  53.2176 343.4685 0001143  90.0014 270.1110 15.08838692111211,6917.884,95.438,540.54,538.959,0.0
53157.0,STARLINK-4093,PAYLOAD,2024-07-16 14:05:53,15.08839905,0.0001397,53.2182,342.5743,80.3245,279.7905,0.00018844,2.712e-05,0.0,0 STARLINK-4093,1 53157U 22083AB  24198.58742103  .00002712  00000-0  18844-3 0  9990,2 53157  53.2182 342.5743 0001397  80.3245 279.7905 15.08839905110610,6917.881,95.438,540.712,538.779,0.0
53157.0,STARLINK-4093,PAYLOAD,2024-07-16 17:16:39,15.08844922,0.0001387,53.2176,341.9795,69.9311,290.1831,0.0003012,4.51e-05,0.0,0 STARLINK-4093,1 53157U 22083AB  24198.71990099  .00004510  00000-0  30120-3 0  9993,2 53157  53.2176 341.9795 0001387  69.9311 290.1831 15.08844922110631,6917.865,95.437,540.69,538.771,0.0
53157.0,STARLINK-4093,PAYLOAD,2024-07-17 02:48:57,15.08863658,0.0001466,53.2175,340.1935,66.4487,293.6659,0.00070889,0.00011019,0.0,0 STARLINK-4093,1 53157U 22083AB  24199.11733350  .00011019  00000-0  70889-3 0  9991,2 53157  53.2175 340.1935 0001466  66.4487 293.6659 15.08863658111321,6917.808,95.436,540.687,538.659,0.0
53157.0,STARLINK-4093,PAYLOAD,2024-07-17 09:10:30,15.08830244,0.0001499,53.2177,339.0059,72.9957,287.1199,-0.00024384,-4.166e-05,0.0,0 STARLINK-4093,1 53157U 22083AB  24199.38230171 -.00004166  00000-0 -24384-3 0  9999,2 53157  53.2177 339.0059 0001499  72.9957 287.1199 15.08830244111363,6917.91,95.438,540.812,538.738,0.0
53157.0,STARLINK-4093,PAYLOAD,2024-07-17 13:56:40,15.0883773,0.0001586,53.2174,338.1145,70.799,289.3174,-4.7043e-05,-1.037e-05,0.0,0 STARLINK-4093,1 53157U 22083AB  24199.58102001 -.00001037  00000-0 -47043-4 0  9993,2 53157  53.2174 338.1145 0001586  70.7990 289.3174 15.08837730110763,6917.887,95.438,540.85,538.655,0.0
53157.0,STARLINK-4093,PAYLOAD,2024-07-17 15:32:03,15.08837127,0.0001051,53.2164,337.8178,66.1576,293.9526,6.891e-05,8.09e-06,0.0,0 STARLINK-4093,1 53157U 22083AB  24199.64725890  .00000809  00000-0  68910-4 0  9997,2 53157  53.2164 337.8178 0001051  66.1576 293.9526 15.08837127111404,6917.889,95.438,540.481,539.027,0.0
53157.0,STARLINK-4093,PAYLOAD,2024-07-18 13:47:27,15.08838837,0.0001426,53.2173,333.6515,81.5401,278.5752,0.00047236,7.237e-05,0.0,0 STARLINK-4093,1 53157U 22083AB  24200.57462481  .00007237  00000-0  47236-3 0  9995,2 53157  53.2173 333.6515 0001426  81.5401 278.5752 15.08838837110911,6917.884,95.438,540.735,538.762,0.0
53157.0,STARLINK-4093,PAYLOAD,2024-07-18 15:22:50,15.08840772,0.0001417,53.2182,333.3545,86.9949,273.1206,0.00038115,5.783e-05,0.0,0 STARLINK-4093,1 53157U 22083AB  24200.64086419  .00005783  00000-0  38115-3 0  9996,2 53157  53.2182 333.3545 0001417  86.9949 273.1206 15.08840772110924,6917.878,95.438,540.723,538.763,0.0
53157.0,STARLINK-4093,PAYLOAD,2024-07-19 12:02:51,15.0883876,0.0001441,53.2182,329.4882,83.8167,276.2989,0.00015242,2.139e-05,0.0,0 STARLINK-4093,1 53157U 22083AB  24201.50198657  .00002139  00000-0  15242-3 0  9998,2 53157  53.2182 329.4882 0001441  83.8167 276.2989 15.08838760111689,6917.884,95.438,540.746,538.752,0.0
53157.0,STARLINK-4093,PAYLOAD,2024-07-19 15:13:37,15.08838294,0.0001278,53.2186,328.8919,89.6281,270.4858,0.00024918,3.68e-05,0.0,0 STARLINK-4093,1 53157U 22083AB  24201.63446702  .00003680  00000-0  24918-3 0  9991,2 53157  53.2186 328.8919 0001278  89.6281 270.4858 15.08838294111072,6917.886,95.438,540.635,538.866,0.0
53157.0,STARLINK-4093,PAYLOAD,2024-07-20 13:29:02,15.08835466,0.0001235,53.2183,324.7288,88.8282,271.2851,4.5825e-05,4.41e-06,0.0,0 STARLINK-4093,1 53157U 22083AB  24202.56182976  .00000441  00000-0  45825-4 0  9997,2 53157  53.2183 324.7288 0001235  88.8282 271.2851 15.08835466111843,6917.894,95.438,540.614,538.905,0.0
53157.0,STARLINK-4093,PAYLOAD,2024-07-20 15:04:25,15.08835171,0.0001232,53.2184,324.4315,88.3861,271.7273,3.536e-05,2.75e-06,0.0,0 STARLINK-4093,1 53157U 22083AB  24202.62806993  .00000275  00000-0  35360-4 0  9994,2 53157  53.2184 324.4315 0001232  88.3861 271.7273 15.08835171111225,6917.895,95.438,540.612,538.908,0.0
53157.0,STARLINK-4093,PAYLOAD,2024-07-21 00:36:42,15.08853652,8.87e-05,53.2182,322.6499,92.4905,267.6189,0.00021471,3.132e-05,0.0,0 STARLINK-4093,1 53157U 22083AB  24203.02549688  .00003132  00000-0  21471-3 0  9996,2 53157  53.2182 322.6499 0000887  92.4905 267.6189 15.08853652111916,6917.839,95.437,540.317,539.09,0.0
53157.0,STARLINK-4093,PAYLOAD,2024-07-21 13:19:49,15.08826252,0.0001389,53.2183,320.2722,99.1292,260.9858,3.1851e-05,2.19e-06,0.0,0 STARLINK-4093,1 53157U 22083AB  24203.55543960  .00000219  00000-0  31851-4 0  9998,2 53157  53.2183 320.2722 0001389  99.1292 260.9858 15.08826252111994,6917.922,95.438,540.748,538.827,0.0
53157.0,STARLINK-4093,PAYLOAD,2024-07-21 14:55:12,15.0882973,0.0001447,53.2196,319.9797,107.2085,252.9066,9.8071e-05,1.273e-05,0.0,0 STARLINK-4093,1 53157U 22083AB  24203.62167641  .00001273  00000-0  98071-4 0  9992,2 53157  53.2196 319.9797 0001447 107.2085 252.9066 15.08829730111379,6917.912,95.438,540.778,538.776,0.0
53157.0,STARLINK-4093,PAYLOAD,2024-07-24 04:55:15,15.0882996,0.000135,53.217,308.3764,108.6944,251.4194,-7.2529e-05,-1.442e-05,0.0,0 STARLINK-4093,1 53157U 22083AB  24206.20503629 -.00001442  00000-0 -72529-4 0  9999,2 53157  53.2170 308.3764 0001350 108.6944 251.4194 15.08829960112393,6917.911,95.438,540.71,538.842,0.0
53157.0,STARLINK-4093,PAYLOAD,2024-07-24 14:27:33,15.08829751,0.0001368,53.2176,306.5939,96.3084,263.8064,0.00022902,3.358e-05,0.0,0 STARLINK-4093,1 53157U 22083AB  24206.60247038  .00003358  00000-0  22902-3 0  9997,2 53157  53.2176 306.5939 0001368  96.3084 263.8064 15.08829751111828,6917.912,95.438,540.723,538.83,0.0
53157.0,STARLINK-4093,PAYLOAD,2024-07-24 19:13:43,15.08835965,0.0001373,53.2167,305.7017,95.108,265.0069,0.00040729,6.199e-05,0.0,0 STARLINK-4093,1 53157U 22083AB  24206.80119233  .00006199  00000-0  40729-3 0  9997,2 53157  53.2167 305.7017 0001373  95.1080 265.0069 15.08835965112481,6917.893,95.438,540.708,538.808,0.0
53157.0,STARLINK-4093,PAYLOAD,2024-07-25 04:46:02,15.08830731,0.0001315,53.2166,303.9178,79.3806,280.7334,0.00032572,4.898e-05,0.0,0 STARLINK-4093,1 53157U 22083AB  24207.19863892  .00004898  00000-0  32572-3 0  9998,2 53157  53.2166 303.9178 0001315  79.3806 280.7334 15.08830731112546,6917.909,95.438,540.683,538.864,0.0
53157.0,STARLINK-4093,PAYLOAD,2024-07-25 06:21:25,15.08832734,0.0001307,53.2161,303.6208,69.5583,290.555,0.00037437,5.674e-05,0.0,0 STARLINK-4093,1 53157U 22083AB  24207.26487930  .00005674  00000-0  37437-3 0  9999,2 53157  53.2161 303.6208 0001307  69.5583 290.5550 15.08832734111921,6917.903,95.438,540.672,538.863,0.0
53157.0,STARLINK-4093,PAYLOAD,2024-07-25 19:04:29,15.08847804,0.000137,53.2164,301.241,93.4417,266.6732,0.00044406,6.788e-05,0.0,0 STARLINK-4093,1 53157U 22083AB  24207.79479079  .00006788  00000-0  44406-3 0  9993,2 53157  53.2164 301.2410 0001370  93.4417 266.6732 15.08847804112634,6917.857,95.437,540.669,538.774,0.0
53157.0,STARLINK-4093,PAYLOAD,2024-07-26 10:58:21,15.0885061,0.0001384,53.2159,298.2676,83.887,276.228,0.00034442,5.199e-05,0.0,0 STARLINK-4093,1 53157U 22083AB  24208.45719164  .00005199  00000-0  34442-3 0  9993,2 53157  53.2159 298.2676 0001384  83.8870 276.2280 15.08850610112733,6917.848,95.437,540.67,538.756,0.0
53157.0,STARLINK-4093,PAYLOAD,2024-07-27 09:13:43,15.08871061,0.0001523,53.216,294.1031,97.383,262.7335,0.00057372,8.862e-05,0.0,0 STARLINK-4093,1 53157U 22083AB  24209.38453503  .00008862  00000-0  57372-3 0  9995,2 53157  53.2160 294.1031 0001523  97.3830 262.7335 15.08871061112875,6917.785,95.436,540.704,538.597,0.0
53157.0,STARLINK-4093,PAYLOAD,2024-07-27 12:24:30,15.08851414,0.0001107,53.2157,293.5091,106.0544,254.057,-6.8937e-07,-2.99e-06,0.0,0 STARLINK-4093,1 53157U 22083AB  24209.51701430 -.00000299  00000-0 -68937-6 0  9995,2 53157  53.2157 293.5091 0001107 106.0544 254.0570 15.08851414112895,6917.846,95.437,540.476,538.945,0.0
